[{"OBJECT_NAME":"IRS-P5 (CARTOSAT-1)","OBJECT_ID":"2005-017A","EPOCH":"2026-03-09T22:48:10.240128","MEAN_MOTION":14.90766826,"ECCENTRICITY":0.00023337,"INCLINATION":97.5413,"RA_OF_ASC_NODE":96.4857,"ARG_OF_PERICENTER":69.4592,"MEAN_ANOMALY":290.6877,"EPHEMERIS_TYPE":0,"CLASSIFICATION_TYPE":"U","NORAD_CAT_ID":28649,"ELEMENT_SET_NO":999,"REV_AT_EPOCH":12903,"BSTAR":0.00024911851,"MEAN_MOTION_DOT":2.396e-5,"MEAN_MOTION_DDOT":0},{"OBJECT_NAME":"COSMOS 1823 DEB","OBJECT_ID":"1987-020EQ","EPOCH":"2026-03-01T18:15:52.328448","MEAN_MOTION":14.90188405,"ECCENTRICITY":0.00284391,"INCLINATION":74.0391,"RA_OF_ASC_NODE":216.9622,"ARG_OF_PERICENTER":41.2551,"MEAN_ANOMALY":319.0772,"EPHEMERIS_TYPE":0,"CLASSIFICATION_TYPE":"U","NORAD_CAT_ID":39816,"ELEMENT_SET_NO":999,"REV_AT_EPOCH":61549,"BSTAR":0.00021558796,"MEAN_MOTION_DOT":2.066e-5,"MEAN_MOTION_DDOT":0}]
